STARLINK-31066          
1 58676U 23211K   26067.46545561  .00009744  00000+0  37151-3 0  9991
2 58676  43.0016 237.9691 0005727 306.2936  53.7386 15.26815036121840
BLUEBON                 
1 62688U 25009CH  26068.70316231  .00010452  00000+0  37313-3 0  9992
2 62688  97.4017 152.2033 0001193  43.3900 316.7434 15.29047253 63767
