[{"OBJECT_NAME":"STARLINK-31066","OBJECT_ID":"2023-211K","EPOCH":"2026-03-08T11:10:15.364704","MEAN_MOTION":15.26815036,"ECCENTRICITY":0.00057276,"INCLINATION":43.0016,"RA_OF_ASC_NODE":237.9691,"ARG_OF_PERICENTER":306.2936,"MEAN_ANOMALY":53.7386,"EPHEMERIS_TYPE":0,"CLASSIFICATION_TYPE":"U","NORAD_CAT_ID":58676,"ELEMENT_SET_NO":999,"REV_AT_EPOCH":12184,"BSTAR":0.00037151144,"MEAN_MOTION_DOT":9.744e-5,"MEAN_MOTION_DDOT":0},{"OBJECT_NAME":"BLUEBON","OBJECT_ID":"2025-009CH","EPOCH":"2026-03-09T16:52:33.225312","MEAN_MOTION":15.29047254,"ECCENTRICITY":0.00011933,"INCLINATION":97.4017,"RA_OF_ASC_NODE":152.2033,"ARG_OF_PERICENTER":43.39,"MEAN_ANOMALY":316.7434,"EPHEMERIS_TYPE":0,"CLASSIFICATION_TYPE":"U","NORAD_CAT_ID":62688,"ELEMENT_SET_NO":999,"REV_AT_EPOCH":6376,"BSTAR":0.00037313027,"MEAN_MOTION_DOT":0.00010452,"MEAN_MOTION_DDOT":0}]
